{"fetched_at":"2026-07-19T07:05:03.176Z","source":"https://celestrak.org/NORAD/elements/gp.php?NAME=CAPELLA&FORMAT=JSON","constellation":"capella","records":[{"OBJECT_NAME":"CAPELLA-11 (ACADIA-1)","OBJECT_ID":"2023-126A","EPOCH":"2026-07-17T00:06:54.491040","CLASSIFICATION_TYPE":"U","MEAN_MOTION":14.8508367,"ECCENTRICITY":0.00023385,"INCLINATION":53.0067,"RA_OF_ASC_NODE":55.4245,"ARG_OF_PERICENTER":134.2199,"MEAN_ANOMALY":225.8973,"EPHEMERIS_TYPE":0,"NORAD_CAT_ID":57693,"ELEMENT_SET_NO":999,"REV_AT_EPOCH":15655,"BSTAR":0.00025504119,"MEAN_MOTION_DOT":0.00001969,"MEAN_MOTION_DDOT":0},{"OBJECT_NAME":"CAPELLA-14 (ACADIA-4)","OBJECT_ID":"2024-066C","EPOCH":"2026-07-16T10:16:18.323904","CLASSIFICATION_TYPE":"U","MEAN_MOTION":15.07675032,"ECCENTRICITY":0.0002747,"INCLINATION":45.6012,"RA_OF_ASC_NODE":101.4049,"ARG_OF_PERICENTER":73.4558,"MEAN_ANOMALY":286.6628,"EPHEMERIS_TYPE":0,"NORAD_CAT_ID":59444,"ELEMENT_SET_NO":999,"REV_AT_EPOCH":11690,"BSTAR":0.00034717,"MEAN_MOTION_DOT":0.0000513,"MEAN_MOTION_DDOT":0},{"OBJECT_NAME":"CAPELLA-13 (ACADIA-3)","OBJECT_ID":"2024-142A","EPOCH":"2026-07-18T14:35:12.597216","CLASSIFICATION_TYPE":"U","MEAN_MOTION":14.87658319,"ECCENTRICITY":0.0001349,"INCLINATION":53.0045,"RA_OF_ASC_NODE":280.4176,"ARG_OF_PERICENTER":88.5673,"MEAN_ANOMALY":271.5462,"EPHEMERIS_TYPE":0,"NORAD_CAT_ID":60419,"ELEMENT_SET_NO":999,"REV_AT_EPOCH":10508,"BSTAR":0.00022511,"MEAN_MOTION_DOT":0.00001832,"MEAN_MOTION_DDOT":0},{"OBJECT_NAME":"CAPELLA-15 (ACADIA-5)","OBJECT_ID":"2024-149CE","EPOCH":"2026-07-18T18:25:46.653312","CLASSIFICATION_TYPE":"U","MEAN_MOTION":14.92397955,"ECCENTRICITY":0.0003065,"INCLINATION":97.6759,"RA_OF_ASC_NODE":271.8791,"ARG_OF_PERICENTER":324.5067,"MEAN_ANOMALY":35.5948,"EPHEMERIS_TYPE":0,"NORAD_CAT_ID":60544,"ELEMENT_SET_NO":999,"REV_AT_EPOCH":10456,"BSTAR":0.00015961,"MEAN_MOTION_DOT":0.00001579,"MEAN_MOTION_DDOT":0},{"OBJECT_NAME":"CAPELLA-17 (ACADIA-7)","OBJECT_ID":"2025-135BH","EPOCH":"2026-07-18T19:14:52.823328","CLASSIFICATION_TYPE":"U","MEAN_MOTION":14.91643835,"ECCENTRICITY":0.0004217,"INCLINATION":97.7711,"RA_OF_ASC_NODE":312.959,"ARG_OF_PERICENTER":234.1727,"MEAN_ANOMALY":125.9101,"EPHEMERIS_TYPE":0,"NORAD_CAT_ID":64583,"ELEMENT_SET_NO":999,"REV_AT_EPOCH":5856,"BSTAR":0.00034234,"MEAN_MOTION_DOT":0.00003384,"MEAN_MOTION_DDOT":0},{"OBJECT_NAME":"CAPELLA-16 (ACADIA-6)","OBJECT_ID":"2025-188D","EPOCH":"2026-07-18T18:29:51.580032","CLASSIFICATION_TYPE":"U","MEAN_MOTION":14.94074135,"ECCENTRICITY":0.000587,"INCLINATION":97.7377,"RA_OF_ASC_NODE":274.4508,"ARG_OF_PERICENTER":125.7448,"MEAN_ANOMALY":234.4318,"EPHEMERIS_TYPE":0,"NORAD_CAT_ID":65318,"ELEMENT_SET_NO":999,"REV_AT_EPOCH":4863,"BSTAR":0.00028029,"MEAN_MOTION_DOT":0.00002938,"MEAN_MOTION_DDOT":0},{"OBJECT_NAME":"CAPELLA-19 (ACADIA-9)","OBJECT_ID":"2026-004X","EPOCH":"2026-07-18T03:50:33.664704","CLASSIFICATION_TYPE":"U","MEAN_MOTION":14.86633532,"ECCENTRICITY":0.00010413,"INCLINATION":97.8003,"RA_OF_ASC_NODE":196.9723,"ARG_OF_PERICENTER":69.5054,"MEAN_ANOMALY":290.6274,"EPHEMERIS_TYPE":0,"NORAD_CAT_ID":67384,"ELEMENT_SET_NO":999,"REV_AT_EPOCH":2787,"BSTAR":0.00027382546,"MEAN_MOTION_DOT":0.00002377,"MEAN_MOTION_DDOT":0},{"OBJECT_NAME":"CAPELLA-18 (ACADIA-8)","OBJECT_ID":"2026-004Y","EPOCH":"2026-07-18T17:00:23.211072","CLASSIFICATION_TYPE":"U","MEAN_MOTION":14.86646395,"ECCENTRICITY":0.0001454,"INCLINATION":97.8019,"RA_OF_ASC_NODE":197.6663,"ARG_OF_PERICENTER":95.5262,"MEAN_ANOMALY":264.612,"EPHEMERIS_TYPE":0,"NORAD_CAT_ID":67385,"ELEMENT_SET_NO":999,"REV_AT_EPOCH":2796,"BSTAR":0.000218,"MEAN_MOTION_DOT":0.00001882,"MEAN_MOTION_DDOT":0},{"OBJECT_NAME":"CAPELLA-20 (ACADIA-10)","OBJECT_ID":"2026-067BX","EPOCH":"2026-07-18T08:25:51.435264","CLASSIFICATION_TYPE":"U","MEAN_MOTION":14.91654728,"ECCENTRICITY":0.0001002,"INCLINATION":97.7608,"RA_OF_ASC_NODE":157.1526,"ARG_OF_PERICENTER":163.4112,"MEAN_ANOMALY":196.714,"EPHEMERIS_TYPE":0,"NORAD_CAT_ID":68485,"ELEMENT_SET_NO":999,"REV_AT_EPOCH":1637,"BSTAR":0.00026501,"MEAN_MOTION_DOT":0.00002607,"MEAN_MOTION_DDOT":0}]}
